[{"OBJECT_NAME":"INMARSAT 4-F2 (SOUTHPAN/PRN 122)","OBJECT_ID":"2005-044A","EPOCH":"2026-03-28T19:55:51.557376","MEAN_MOTION":1.00271636,"ECCENTRICITY":0.0002875,"INCLINATION":4.9906,"RA_OF_ASC_NODE":43.7944,"ARG_OF_PERICENTER":340.2953,"MEAN_ANOMALY":244.6056,"EPHEMERIS_TYPE":0,"CLASSIFICATION_TYPE":"U","NORAD_CAT_ID":28899,"ELEMENT_SET_NO":999,"REV_AT_EPOCH":7471,"BSTAR":0,"MEAN_MOTION_DOT":-2.76e-6,"MEAN_MOTION_DDOT":0},{"OBJECT_NAME":"GSAT-8 (GAGAN/PRN 127)","OBJECT_ID":"2011-022A","EPOCH":"2026-03-29T03:01:37.358112","MEAN_MOTION":1.0027299,"ECCENTRICITY":0.000655,"INCLINATION":1.9248,"RA_OF_ASC_NODE":82.7894,"ARG_OF_PERICENTER":220.1258,"MEAN_ANOMALY":344.0892,"EPHEMERIS_TYPE":0,"CLASSIFICATION_TYPE":"U","NORAD_CAT_ID":37605,"ELEMENT_SET_NO":999,"REV_AT_EPOCH":5241,"BSTAR":0,"MEAN_MOTION_DOT":6.7e-7,"MEAN_MOTION_DDOT":0},{"OBJECT_NAME":"LUCH 5A (SDCM/PRN 140)","OBJECT_ID":"2011-074B","EPOCH":"2026-03-28T19:00:03.552192","MEAN_MOTION":1.00269816,"ECCENTRICITY":0.00032325,"INCLINATION":8.551,"RA_OF_ASC_NODE":74.9754,"ARG_OF_PERICENTER":271.7532,"MEAN_ANOMALY":291.4452,"EPHEMERIS_TYPE":0,"CLASSIFICATION_TYPE":"U","NORAD_CAT_ID":37951,"ELEMENT_SET_NO":999,"REV_AT_EPOCH":5224,"BSTAR":0,"MEAN_MOTION_DOT":-6.3e-7,"MEAN_MOTION_DDOT":0},{"OBJECT_NAME":"SES-5 (EGNOS/PRN 136)","OBJECT_ID":"2012-036A","EPOCH":"2026-03-29T04:29:58.882848","MEAN_MOTION":1.00271352,"ECCENTRICITY":0.0001969,"INCLINATION":0.0635,"RA_OF_ASC_NODE":303.9606,"ARG_OF_PERICENTER":58.773,"MEAN_ANOMALY":256.3156,"EPHEMERIS_TYPE":0,"CLASSIFICATION_TYPE":"U","NORAD_CAT_ID":38652,"ELEMENT_SET_NO":999,"REV_AT_EPOCH":4365,"BSTAR":0,"MEAN_MOTION_DOT":1.4e-7,"MEAN_MOTION_DDOT":0},{"OBJECT_NAME":"GSAT-10 (GAGAN/PRN 128)","OBJECT_ID":"2012-051B","EPOCH":"2026-03-29T01:26:56.660928","MEAN_MOTION":1.00270484,"ECCENTRICITY":0.0005598,"INCLINATION":0.0106,"RA_OF_ASC_NODE":184.2302,"ARG_OF_PERICENTER":256.3277,"MEAN_ANOMALY":210.6285,"EPHEMERIS_TYPE":0,"CLASSIFICATION_TYPE":"U","NORAD_CAT_ID":38779,"ELEMENT_SET_NO":999,"REV_AT_EPOCH":4929,"BSTAR":0,"MEAN_MOTION_DOT":-1.84e-6,"MEAN_MOTION_DDOT":0},{"OBJECT_NAME":"LUCH 5B (SDCM/PRN 125)","OBJECT_ID":"2012-061A","EPOCH":"2026-03-29T04:23:51.968832","MEAN_MOTION":1.0027334,"ECCENTRICITY":0.0003185,"INCLINATION":10.3126,"RA_OF_ASC_NODE":50.6584,"ARG_OF_PERICENTER":223.7539,"MEAN_ANOMALY":321.7844,"EPHEMERIS_TYPE":0,"CLASSIFICATION_TYPE":"U","NORAD_CAT_ID":38977,"ELEMENT_SET_NO":999,"REV_AT_EPOCH":4880,"BSTAR":0,"MEAN_MOTION_DOT":-1.49e-6,"MEAN_MOTION_DDOT":0},{"OBJECT_NAME":"ASTRA 5B (EGNOS/PRN 123)","OBJECT_ID":"2014-011B","EPOCH":"2026-03-29T01:09:50.800032","MEAN_MOTION":1.00269347,"ECCENTRICITY":0.0003625,"INCLINATION":0.0873,"RA_OF_ASC_NODE":299.9338,"ARG_OF_PERICENTER":41.6912,"MEAN_ANOMALY":245.7844,"EPHEMERIS_TYPE":0,"CLASSIFICATION_TYPE":"U","NORAD_CAT_ID":39617,"ELEMENT_SET_NO":999,"REV_AT_EPOCH":4386,"BSTAR":0,"MEAN_MOTION_DOT":1.17e-6,"MEAN_MOTION_DDOT":0},{"OBJECT_NAME":"LUCH 5V (SDCM/PRN 141)","OBJECT_ID":"2014-023A","EPOCH":"2026-03-28T23:47:31.738848","MEAN_MOTION":1.00272014,"ECCENTRICITY":0.0002476,"INCLINATION":4.9365,"RA_OF_ASC_NODE":70.5253,"ARG_OF_PERICENTER":304.0122,"MEAN_ANOMALY":263.4836,"EPHEMERIS_TYPE":0,"CLASSIFICATION_TYPE":"U","NORAD_CAT_ID":39727,"ELEMENT_SET_NO":999,"REV_AT_EPOCH":4355,"BSTAR":0,"MEAN_MOTION_DOT":-2.84e-6,"MEAN_MOTION_DDOT":0},{"OBJECT_NAME":"GSAT-15 (GAGAN/PRN 139)","OBJECT_ID":"2015-065A","EPOCH":"2026-03-29T01:29:56.374656","MEAN_MOTION":1.00271738,"ECCENTRICITY":0.0002144,"INCLINATION":0.0249,"RA_OF_ASC_NODE":256.4151,"ARG_OF_PERICENTER":140.3014,"MEAN_ANOMALY":265.7306,"EPHEMERIS_TYPE":0,"CLASSIFICATION_TYPE":"U","NORAD_CAT_ID":41028,"ELEMENT_SET_NO":999,"REV_AT_EPOCH":3799,"BSTAR":0,"MEAN_MOTION_DOT":-2.77e-6,"MEAN_MOTION_DDOT":0},{"OBJECT_NAME":"EUTELSAT 117 WEST B (WAAS/PRN 131)","OBJECT_ID":"2016-038B","EPOCH":"2026-03-28T23:48:38.729088","MEAN_MOTION":1.00271965,"ECCENTRICITY":1.68e-5,"INCLINATION":0.0213,"RA_OF_ASC_NODE":37.1578,"ARG_OF_PERICENTER":78.5448,"MEAN_ANOMALY":310.8654,"EPHEMERIS_TYPE":0,"CLASSIFICATION_TYPE":"U","NORAD_CAT_ID":41589,"ELEMENT_SET_NO":999,"REV_AT_EPOCH":3585,"BSTAR":0,"MEAN_MOTION_DOT":-3.1e-7,"MEAN_MOTION_DDOT":0},{"OBJECT_NAME":"SES-15 (WAAS/PRN 133)","OBJECT_ID":"2017-026A","EPOCH":"2026-03-28T22:43:40.273824","MEAN_MOTION":1.00270319,"ECCENTRICITY":6.82e-5,"INCLINATION":0.0363,"RA_OF_ASC_NODE":335.6778,"ARG_OF_PERICENTER":15.9177,"MEAN_ANOMALY":46.5064,"EPHEMERIS_TYPE":0,"CLASSIFICATION_TYPE":"U","NORAD_CAT_ID":42709,"ELEMENT_SET_NO":999,"REV_AT_EPOCH":662,"BSTAR":0,"MEAN_MOTION_DOT":4.0e-7,"MEAN_MOTION_DDOT":0},{"OBJECT_NAME":"QZS-2 (QZSS/PRN 194)","OBJECT_ID":"2017-028A","EPOCH":"2026-03-28T17:50:38.535648","MEAN_MOTION":1.00255529,"ECCENTRICITY":0.07429699,"INCLINATION":39.5536,"RA_OF_ASC_NODE":244.3254,"ARG_OF_PERICENTER":270.5503,"MEAN_ANOMALY":79.276,"EPHEMERIS_TYPE":0,"CLASSIFICATION_TYPE":"U","NORAD_CAT_ID":42738,"ELEMENT_SET_NO":999,"REV_AT_EPOCH":681,"BSTAR":0,"MEAN_MOTION_DOT":-2.2e-6,"MEAN_MOTION_DDOT":0},{"OBJECT_NAME":"QZS-3 (QZSS/PRN 199)","OBJECT_ID":"2017-048A","EPOCH":"2026-03-28T23:56:42.816192","MEAN_MOTION":1.00274239,"ECCENTRICITY":0.0002051,"INCLINATION":0.0541,"RA_OF_ASC_NODE":160.4016,"ARG_OF_PERICENTER":199.8498,"MEAN_ANOMALY":312.3421,"EPHEMERIS_TYPE":0,"CLASSIFICATION_TYPE":"U","NORAD_CAT_ID":42917,"ELEMENT_SET_NO":999,"REV_AT_EPOCH":3145,"BSTAR":0,"MEAN_MOTION_DOT":-3.67e-6,"MEAN_MOTION_DDOT":0},{"OBJECT_NAME":"QZS-4 (QZSS/PRN 195)","OBJECT_ID":"2017-062A","EPOCH":"2026-03-28T13:42:11.532384","MEAN_MOTION":1.00273721,"ECCENTRICITY":0.0748036,"INCLINATION":40.1569,"RA_OF_ASC_NODE":344.5133,"ARG_OF_PERICENTER":270.3627,"MEAN_ANOMALY":277.2698,"EPHEMERIS_TYPE":0,"CLASSIFICATION_TYPE":"U","NORAD_CAT_ID":42965,"ELEMENT_SET_NO":999,"REV_AT_EPOCH":3099,"BSTAR":0,"MEAN_MOTION_DOT":-3.34e-6,"MEAN_MOTION_DDOT":0},{"OBJECT_NAME":"BEIDOU-3 G1 (PRN 130)","OBJECT_ID":"2018-085A","EPOCH":"2026-03-29T05:08:25.196064","MEAN_MOTION":1.00269245,"ECCENTRICITY":0.000156,"INCLINATION":2.8726,"RA_OF_ASC_NODE":99.6029,"ARG_OF_PERICENTER":22.3478,"MEAN_ANOMALY":281.7423,"EPHEMERIS_TYPE":0,"CLASSIFICATION_TYPE":"U","NORAD_CAT_ID":43683,"ELEMENT_SET_NO":999,"REV_AT_EPOCH":2725,"BSTAR":0,"MEAN_MOTION_DOT":-2.95e-6,"MEAN_MOTION_DDOT":0},{"OBJECT_NAME":"EUTELSAT 5 WEST B (EGNOS/PRN 121)","OBJECT_ID":"2019-067A","EPOCH":"2026-03-29T04:27:06.658272","MEAN_MOTION":1.00271444,"ECCENTRICITY":0.0003273,"INCLINATION":0.0658,"RA_OF_ASC_NODE":356.5785,"ARG_OF_PERICENTER":15.305,"MEAN_ANOMALY":236.4646,"EPHEMERIS_TYPE":0,"CLASSIFICATION_TYPE":"U","NORAD_CAT_ID":44624,"ELEMENT_SET_NO":999,"REV_AT_EPOCH":2363,"BSTAR":0,"MEAN_MOTION_DOT":-6.2e-7,"MEAN_MOTION_DDOT":0},{"OBJECT_NAME":"BEIDOU-3 G2 (PRN 144)","OBJECT_ID":"2020-017A","EPOCH":"2026-03-29T04:00:38.672064","MEAN_MOTION":1.00271926,"ECCENTRICITY":0.0002571,"INCLINATION":2.7042,"RA_OF_ASC_NODE":46.0098,"ARG_OF_PERICENTER":322.9242,"MEAN_ANOMALY":317.8295,"EPHEMERIS_TYPE":0,"CLASSIFICATION_TYPE":"U","NORAD_CAT_ID":45344,"ELEMENT_SET_NO":999,"REV_AT_EPOCH":2245,"BSTAR":0,"MEAN_MOTION_DOT":-1.57e-6,"MEAN_MOTION_DDOT":0}]
