INMARSAT 4-F2 (SOUTHPA*)
1 28899U 05044A   26087.83045784 -.00000276  00000+0  00000+0 0  9995
2 28899   4.9906  43.7944 0002875 340.2953 244.6056  1.00271636 74717
GSAT-8 (GAGAN/PRN 127)  
1 37605U 11022A   26088.12612683  .00000067  00000+0  00000+0 0  9991
2 37605   1.9248  82.7894 0006550 220.1258 344.0892  1.00272990 52413
LUCH 5A (SDCM/PRN 140)  
1 37951U 11074B   26087.79170778 -.00000063  00000+0  00000+0 0  9995
2 37951   8.5510  74.9754 0003232 271.7532 291.4452  1.00269816 52242
SES-5 (EGNOS/PRN 136)   
1 38652U 12036A   26088.18748707  .00000014  00000+0  00000+0 0  9995
2 38652   0.0635 303.9606 0001969  58.7730 256.3156  1.00271352 43659
GSAT-10 (GAGAN/PRN 128) 
1 38779U 12051B   26088.06037802 -.00000184  00000+0  00000+0 0  9995
2 38779   0.0106 184.2302 0005598 256.3277 210.6285  1.00270484 49296
LUCH 5B (SDCM/PRN 125)  
1 38977U 12061A   26088.18324038 -.00000149  00000+0  00000+0 0  9990
2 38977  10.3126  50.6584 0003185 223.7539 321.7844  1.00273340 48804
ASTRA 5B (EGNOS/PRN 123)
1 39617U 14011B   26088.04850463  .00000117  00000+0  00000+0 0  9994
2 39617   0.0873 299.9338 0003625  41.6912 245.7844  1.00269347 43865
LUCH 5V (SDCM/PRN 141)  
1 39727U 14023A   26087.99133957 -.00000284  00000+0  00000+0 0  9990
2 39727   4.9365  70.5253 0002476 304.0122 263.4836  1.00272014 43556
GSAT-15 (GAGAN/PRN 139) 
1 41028U 15065A   26088.06245804 -.00000277  00000+0  00000+0 0  9990
2 41028   0.0249 256.4151 0002144 140.3014 265.7306  1.00271738 37996
EUTELSAT 117 WEST B (W*)
1 41589U 16038B   26087.99211492 -.00000031  00000+0  00000+0 0  9998
2 41589   0.0213  37.1578 0000168  78.5448 310.8654  1.00271965 35856
SES-15 (WAAS/PRN 133)   
1 42709U 17026A   26087.94699391  .00000040  00000+0  00000+0 0  9993
2 42709   0.0363 335.6778 0000682  15.9177  46.5064  1.00270319  6623
QZS-2 (QZSS/PRN 194)    
1 42738U 17028A   26087.74350157 -.00000220  00000+0  00000+0 0  9990
2 42738  39.5536 244.3254 0742969 270.5503  79.2760  1.00255529  6815
QZS-3 (QZSS/PRN 199)    
1 42917U 17048A   26087.99771778 -.00000367  00000+0  00000+0 0  9996
2 42917   0.0541 160.4016 0002051 199.8498 312.3421  1.00274239 31456
QZS-4 (QZSS/PRN 195)    
1 42965U 17062A   26087.57096681 -.00000334  00000+0  00000+0 0  9996
2 42965  40.1569 344.5133 0748036 270.3627 277.2698  1.00273721 30996
BEIDOU-3 G1 (C59)       
1 43683U 18085A   26088.21418051 -.00000295  00000+0  00000+0 0  9997
2 43683   2.8726  99.6029 0001560  22.3478 281.7423  1.00269245 27256
EUTELSAT 5 WEST B (EGN*)
1 44624U 19067A   26088.18549373 -.00000062  00000+0  00000+0 0  9994
2 44624   0.0658 356.5785 0003273  15.3050 236.4646  1.00271444 23637
BEIDOU-3 G2 (C60)       
1 45344U 20017A   26088.16711426 -.00000157  00000+0  00000+0 0  9994
2 45344   2.7042  46.0098 0002571 322.9242 317.8295  1.00271926 22459
